IRIDIUM 155             
1 43573U 18061E   21261.47970896  .00000006  00000-0 -48473-5 0  9998
2 43573  86.3940  60.8095 0001529  94.5604 265.5766 14.34216830165008
IRIDIUM 154             
1 43574U 18061F   21261.46067630  .00000002  00000-0 -65210-5 0  9995
2 43574  86.3944  60.8684 0002206  86.4717 273.6731 14.34216869165054
IRIDIUM 163             
1 43575U 18061G   21261.44162903  .00000008  00000-0 -41261-5 0  9999
2 43575  86.3942  60.8445 0002366 100.2051 259.9412 14.34216533165029
IRIDIUM 156             
1 43576U 18061H   21261.48602838  .00000013  00000-0 -25262-5 0  9999
2 43576  86.3942  60.8310 0001939 101.5688 258.5725 14.34216738165025
IRIDIUM 164             
1 43577U 18061J   21261.46702032  .00000000  00000-0 -71118-5 0  9992
2 43577  86.3943  60.8530 0002241  89.9330 270.2122 14.34216620165067
IRIDIUM 159             
1 43578U 18061K   21261.50509576  .00000024  00000-0  14118-5 0  9998
2 43578  86.3942  60.8101 0002256  88.8985 271.2469 14.34217950165030
IRIDIUM 180             
1 43922U 19002A   21261.50457307  .00000075  00000-0  19618-4 0  9996
2 43922  86.4028 357.6914 0003102  88.2098 271.9453 14.34217518140648
IRIDIUM 176             
1 43923U 19002B   21261.52622069  .00000178  00000-0  24325-4 0  9993
2 43923  86.6160 357.7163 0002389  92.9887 267.1603 14.72255003144325
IRIDIUM 168             
1 43924U 19002C   21261.56799276  .00000076  00000-0  19924-4 0  9999
2 43924  86.4030 357.6932 0002404  90.0934 270.0537 14.34215676140632
IRIDIUM 173             
1 43925U 19002D   21261.34600390  .00000074  00000-0  19514-4 0  9997
2 43925  86.4025 357.7455 0002461  92.7143 267.4335 14.34218305140584
IRIDIUM 169             
1 43926U 19002E   21261.61799680  .00000092  00000-0  23528-4 0  9999
2 43926  86.4261  29.2071 0002816 295.6308  64.4599 14.38605515141139
IRIDIUM 172             
1 43927U 19002F   21261.54896925  .00000079  00000-0  21300-4 0  9993
2 43927  86.4027 357.6632 0002479  91.1396 269.0084 14.34216849140621
IRIDIUM 175             
1 43928U 19002G   21261.52004409  .00000032  00000-0  11580-5 0  9999
2 43928  86.6162 357.5415 0002889  98.8139 261.3406 14.72251582144314
IRIDIUM 171             
1 43929U 19002H   21261.52994439  .00000075  00000-0  19821-4 0  9993
2 43929  86.4036 357.7849 0002387  89.5638 270.5831 14.34219615140612
IRIDIUM 170             
1 43930U 19002J   21261.53239653  .00000177  00000-0  24175-4 0  9997
2 43930  86.6159 357.7194 0002490  90.6581 269.4921 14.72249992144333
IRIDIUM 167             
1 43931U 19002K   21261.52358717  .00000075  00000-0  19560-4 0  9999
2 43931  86.4027 357.6809 0002869  87.6944 272.4580 14.34216091140611
